EUTELSAT 33C            
1 26719U 01011A   20062.44979911  .00000078  00000-0  00000-0 0  9997
2 26719   1.7151  89.5519 0005082 253.2404 206.9327  1.00273606 69508
INTELSAT 10 (IS-10)     
1 26766U 01019A   20062.46300962  .00000125  00000-0  00000+0 0  9995
2 26766   3.6489  79.6915 0002060 257.2943  37.8758  1.00272797 68889
INTELSAT 901 (IS-901)   
1 26824U 01024A   20059.03232583 -.00000251  00000-0  00000-0 0  9990
2 26824   1.6201  91.3221 0002099 343.5896 216.5420  0.99199841 68600
ASTRA 2C                
1 26853U 01025A   20062.24287037  .00000136  00000-0  00000-0 0  9995
2 26853   2.5788  86.3045 0002980 246.1516 299.1392  1.00270097 22012
USA 159 (DSP 21)        
1 26880U 01033A   20062.36209448 -.00000292  00000-0  00000-0 0  9991
2 26880  10.6688  31.0624 0001311 343.8446 226.9584  1.00270011  9927
INTELSAT 902 (IS-902)   
1 26900U 01039A   20062.44913910 -.00000197  00000-0  00000-0 0  9999
2 26900   0.3659  98.1669 0005615 263.3685 298.6966  1.00064344 67675
EUTELSAT 12 WEST B      
1 26927U 01042A   20062.29534582 -.00000100  00000-0  00000-0 0  9993
2 26927   0.8210  94.1769 0005695 261.6154 258.5444  1.00272562 67476
USA 164 (MILSTAR-2 3)   
1 27168U 02001A   20062.09442794  .00000105  00000-0  00000-0 0  9992
2 27168   8.6618  32.3585 0002371 290.9986 249.9222  1.00270218  9917
ECHOSTAR 7              
1 27378U 02006A   20062.42985995  .00000001  00000-0  00000-0 0  9997
2 27378   0.0604 288.9252 0002091  16.1004 251.5752  1.00270952 27573
INTELSAT 904 (IS-904)   
1 27380U 02007A   20062.30410997 -.00000213  00000-0  00000+0 0  9998
2 27380   1.2042  94.4388 0002798 242.2858 263.7871  1.00272550 66046
TDRS 9                  
1 27389U 02011A   20062.44102616 -.00000285  00000-0  00000+0 0  9992
2 27389   7.2700  68.4187 0026848 274.6954 274.0652  1.00269152 67393
JCSAT 2A                
1 27399U 02015A   20062.47408856 -.00000300  00000-0  00000+0 0  9993
2 27399   2.6568  86.1060 0001921 309.0140  39.3806  1.00120578 65576
ASTRA 3A                
1 27400U 02015B   20062.39910480 -.00000201  00000-0  00000+0 0  9998
2 27400   5.7070  64.0243 0002440 267.7191 245.7214  1.00273307 65689
INTELSAT 903 (IS-903)   
1 27403U 02016A   20062.44704544 -.00000224  00000-0  00000-0 0  9996
2 27403   2.0346  89.6141 0001704 293.9722 266.5211  1.00271334 22635
NSS-7                   
1 27414U 02019A   20062.44948804 -.00000157  00000-0  00000-0 0  9995
2 27414   3.9993  77.4158 0002691 259.5283 325.5404  1.00272222 65526
DIRECTV 5 (TEMPO 1)     
1 27426U 02023A   20062.43160469 -.00000055  00000-0  00000-0 0  9992
2 27426   0.0202 143.6643 0003405 210.7385 211.5198  1.00272539 65290
INTELSAT 905 (IS-905)   
1 27438U 02027A   20062.44861569 -.00000184  00000-0  00000-0 0  9992
2 27438   1.0246  95.4109 0002735 241.8321 320.4357  1.00272309 28339
EXPRESS-A4              
1 27441U 02029A   20062.53515370  .00000119  00000-0  00000-0 0  9991
2 27441   7.6708  50.7601 0002269 341.2512  11.5915  0.99593520 64929
GALAXY 3C (G-3C)        
1 27445U 02030A   20062.51141362 -.00000150  00000-0  00000-0 0  9997
2 27445   0.0391 324.8690 0001930 359.0911 285.8533  1.00271404 23468
EUTELSAT 5 WEST A       
1 27460U 02035A   20062.38074615 -.00000042  00000-0  00000-0 0  9990
2 27460   0.3159  98.3265 0005569 245.2381 309.0967  1.00272182 64571
N-STAR C                
1 27461U 02035B   20062.45524168 -.00000311  00000-0  00000+0 0  9990
2 27461   6.4473  59.5254 0005644 351.7891  49.2213  1.00268661 64628
METEOSAT-8 (MSG-1)      
1 27509U 02040B   20062.17456466  .00000140  00000-0  00000+0 0  9992
2 27509   6.5370  54.5380 0000791 341.6464 228.4281  1.00270162 64204
INTELSAT 906 (IS-906)   
1 27513U 02041A   20062.53811972  .00000015  00000-0  00000-0 0  9997
2 27513   0.0356 126.0879 0002294 230.3055  62.2290  1.00271392 63984
HISPASAT 30W-4          
1 27528U 02044A   20062.48313111  .00000118  00000-0  00000-0 0  9996
2 27528   0.8201  94.7708 0005981 245.3471 211.5120  1.00275641 19931
TDRS 10                 
1 27566U 02055A   20062.34286144  .00000094  00000-0  00000-0 0  9993
2 27566   6.7213  54.1114 0009474 286.0373 132.8042  1.00277496 63191
NSS-6                   
1 27603U 02057A   20062.39910480 -.00000196  00000-0  00000-0 0  9993
2 27603   0.0912 278.7464 0003075  42.8716 255.9240  1.00271268 63006
NIMIQ 2                 
1 27632U 02062A   20062.48263767 -.00000237  00000-0  00000-0 0  9996
2 27632   4.1118  76.5888 0011549 332.5679  71.2791  1.00270687 21151
INTELSAT 907 (IS-907)   
1 27683U 03007A   20062.44800503 -.00000202  00000-0  00000+0 0  9994
2 27683   0.0140 155.2414 0002677 194.8700 304.3512  1.00271359 62347
USA 167                 
1 27691U 03008A   20062.14045543  .00000058  00000-0  00000+0 0  9994
2 27691   6.4442  59.4351 0003654 316.2401  65.1763  1.00271810  8588
USA 169 (MILSTAR-2 4)   
1 27711U 03012A   20062.40958205 -.00000005  00000-0  00000+0 0  9992
2 27711   8.9042  45.5976 0002114 301.8941 200.5963  1.00273500  8600
GALAXY 12 (G-12)        
1 27715U 03013B   20062.44424183  .00000059  00000-0  00000-0 0  9993
2 27715   1.2408  93.5758 0001928 247.1079 210.8981  1.00272852 29104
ASIASAT 4               
1 27718U 03014A   20062.44493767  .00000154  00000-0  00000-0 0  9997
2 27718   0.0119 156.8322 0002520 197.6601   4.5268  1.00270659 22250
HELLAS-SAT 2            
1 27811U 03020A   20062.51141362 -.00000150  00000-0  00000-0 0  9994
2 27811   1.6604  93.3841 0002621 255.8177 260.4447  1.00272103 19814
THURAYA-2               
1 27825U 03026A   20062.46231172  .00000131  00000-0  00000-0 0  9996
2 27825   5.8094  32.6361 0005052 309.1028  29.3677  1.00273658 61304
OPTUS C1                
1 27831U 03028B   20062.60535766 -.00000150  00000-0  00000-0 0  9999
2 27831   1.1652  95.6898 0005252 250.4239 188.3546  1.00271966 30024
GALAXY 23 (G-23)        
1 27854U 03034A   20062.54216101  .00000014  00000-0  00000-0 0  9991
2 27854   0.0523 268.7153 0002890  75.8841 250.3346  1.00271514 60709
USA 170                 
1 27875U 03040A   20062.37688213 -.00000270  00000-0  00000-0 0  9994
2 27875   5.6721  64.9523 0002223 347.8916 201.1736  1.00270807  9923
GALAXY 13 (HORIZONS 1)  
1 27954U 03044A   20062.54216101  .00000049  00000-0  00000-0 0  9991
2 27954   0.0080 146.9009 0000975 237.3414 204.6551  1.00270799 23543
YAMAL 202               
1 28089U 03053A   20062.61854953 -.00000079  00000-0  00000-0 0  9996
2 28089   0.5972  96.3757 0003836 254.8629 195.7434  1.00272726 59649
UFO 11 (USA 174)        
1 28117U 03057A   20062.62383428 -.00000099  00000-0  00000-0 0  9999
2 28117   5.9373  37.2546 0006804 311.6668 111.9747  1.00270983 59413
USA 176 (DSP 22)        
1 28158U 04004A   20062.47094809 -.00000214  00000-0  00000-0 0  9991
2 28158   9.0279  39.8287 0000475  26.2415 351.4666  1.00269811  9891
ABS-4 (MOBISAT-1)       
1 28184U 04007A   20062.43938348  .00000041  00000-0  00000+0 0  9990
2 28184   0.2784  98.0386 0005280 252.4409  29.3414  1.00273831 58541
EUTELSAT 7A             
1 28187U 04008A   20062.53428134  .00000087  00000-0  00000-0 0  9993
2 28187   0.0970  57.0145 0004967 247.5552  93.2381  1.00677579 58317
DIRECTV 7S              
1 28238U 04016A   20062.41003122  .00000002  00000-0  00000-0 0  9999
2 28238   0.0386 307.5232 0003403  40.5713 201.0799  1.00272118 58029
AMC-11 (GE-11)          
1 28252U 04017A   20062.54216101  .00000070  00000-0  00000-0 0  9998
2 28252   0.0441 313.9963 0002709  16.9805 253.9627  1.00271380 57863
INTELSAT 10-02          
1 28358U 04022A   20062.38153128 -.00000010  00000-0  00000-0 0  9997
2 28358   0.0152 141.8469 0002748 214.2396 300.8794  1.00272327 57611
ANIK F2                 
1 28378U 04027A   20062.33642042 -.00000048  00000-0  00000-0 0  9998
2 28378   0.0248 263.1347 0000182  22.7708 244.6811  1.00270911 18249
AMC-15                  
1 28446U 04041A   20062.42453598 -.00000088  00000-0  00000-0 0  9990
2 28446   0.0513 308.0124 0002593  28.4990 231.9172  1.00272304 56313
AMC-16                  
1 28472U 04048A   20062.39910480 -.00000205  00000-0  00000-0 0  9991
2 28472   0.0569 298.2486 0002741  38.2838 242.7758  1.00272164 55682
NSS-10 (AMC-12)         
1 28526U 05003A   20062.44608584 -.00000250  00000-0  00000-0 0  9998
2 28526   0.7668  95.5378 0002832 250.2070 298.0679  1.00273184 30112
XTAR-EUR                
1 28542U 05005A   20061.47573224  .00000152  00000-0  00000-0 0  9992
2 28542   0.0408 294.6975 0003012  44.8119  20.4624  1.00270728 55140
XM-3 (RHYTHM)           
1 28626U 05008A   20062.39910480 -.00000205  00000-0  00000+0 0  9998
2 28626   0.0167 324.7557 0000402  27.0326 227.4058  1.00274048 55025
INMARSAT 4-F1           
1 28628U 05009A   20062.46650567 -.00000259  00000-0  00000-0 0  9996
2 28628   3.1389  26.1410 0002912 321.8520 124.1419  1.00271462 54634
APSTAR 6                
1 28638U 05012A   20062.50396787 -.00000083  00000-0  00000-0 0  9992
2 28638   1.4059  93.1930 0007287 258.1168 153.8443  1.00272643 79344
DIRECTV 8               
1 28659U 05019A   20062.42222990 -.00000115  00000-0  00000+0 0  9992
2 28659   0.0145 150.1134 0002941 184.9580 236.8152  1.00269935 54144
GALAXY 28 (G-28)        
1 28702U 05022A   20062.39910480 -.00000184  00000-0  00000-0 0  9996
2 28702   0.0249 109.0515 0002252 241.6174 224.6133  1.00270647 29079
EXPRESS-AM3             
1 28707U 05023A   20062.02978727 -.00000321  00000-0  00000+0 0  9992
2 28707   1.5841  91.4494 0000549 147.4075  35.1209  1.00269972 53792
THAICOM 4               
1 28786U 05028A   20062.47740353 -.00000362  00000-0  00000+0 0  9990
2 28786   0.0190 139.1824 0002157 194.6143 118.2777  1.00272025 53284
GALAXY 14 (G-14)        
1 28790U 05030A   20062.50034657  .00000038  00000-0  00000-0 0  9995
2 28790   0.0569 301.0139 0002449  33.4368 241.4025  1.00270960 53271
